{
  "type": "FeatureCollection",
  "features": [
    {
      "type": "Feature",
      "properties": {
        "norad_id": 31165,
        "name": "FENGYUN 1C DEB",
        "group": "fengyun-1c-debris",
        "lat": -74.1658330967428,
        "lon": 75.33367595390989,
        "alt_km": 625.2550852014074,
        "timestamp": "2025-12-08T10:52:03.228321+00:00",
        "meta_object_name": "FENGYUN 1C DEB",
        "meta_object_id": "1999-025BHT",
        "meta_epoch": "2025-12-07T10:47:35.534976",
        "meta_mean_motion": 14.70926671,
        "meta_eccentricity": 0.00692285,
        "meta_inclination": 98.8855,
        "meta_ra_of_asc_node": 40.764,
        "meta_arg_of_pericenter": 251.4091,
        "meta_mean_anomaly": 122.6564,
        "meta_ephemeris_type": 0,
        "meta_classification_type": "U",
        "meta_norad_cat_id": 31165,
        "meta_element_set_no": 999,
        "meta_rev_at_epoch": 98677,
        "meta_bstar": 0.0020209824,
        "meta_mean_motion_dot": 0.00012806,
        "meta_mean_motion_ddot": 0,
        "tle_line1": "1 31165U 99025BHT 25341.44971684  .00012806  00000+0  20210-2 0  9992",
        "tle_line2": "2 31165  98.8855  40.7640 0069228 251.4091 122.6564 14.70926671986777"
      },
      "geometry": {
        "type": "Point",
        "coordinates": [
          75.33367595390989,
          -74.1658330967428
        ]
      }
    },
    {
      "type": "Feature",
      "properties": {
        "norad_id": 31168,
        "name": "FENGYUN 1C DEB",
        "group": "fengyun-1c-debris",
        "lat": -63.857679080720956,
        "lon": -85.26163939057152,
        "alt_km": 752.0382851391505,
        "timestamp": "2025-12-08T10:52:03.228332+00:00",
        "meta_object_name": "FENGYUN 1C DEB",
        "meta_object_id": "1999-025BHW",
        "meta_epoch": "2025-12-07T14:07:13.067616",
        "meta_mean_motion": 14.67283945,
        "meta_eccentricity": 0.01088741,
        "meta_inclination": 98.8911,
        "meta_ra_of_asc_node": 112.4,
        "meta_arg_of_pericenter": 79.4903,
        "meta_mean_anomaly": 281.8544,
        "meta_ephemeris_type": 0,
        "meta_classification_type": "U",
        "meta_norad_cat_id": 31168,
        "meta_element_set_no": 999,
        "meta_rev_at_epoch": 99045,
        "meta_bstar": 0.0012286131,
        "meta_mean_motion_dot": 7.519e-05,
        "meta_mean_motion_ddot": 0,
        "tle_line1": "1 31168U 99025BHW 25341.58834569  .00007519  00000+0  12286-2 0  9999",
        "tle_line2": "2 31168  98.8911 112.4000 0108874  79.4903 281.8544 14.67283945990453"
      },
      "geometry": {
        "type": "Point",
        "coordinates": [
          -85.26163939057152,
          -63.857679080720956
        ]
      }
    },
    {
      "type": "Feature",
      "properties": {
        "norad_id": 31169,
        "name": "FENGYUN 1C DEB",
        "group": "fengyun-1c-debris",
        "lat": 13.226492423422977,
        "lon": 6.516956988504284,
        "alt_km": 765.12695159137,
        "timestamp": "2025-12-08T10:52:03.228342+00:00",
        "meta_object_name": "FENGYUN 1C DEB",
        "meta_object_id": "1999-025BHX",
        "meta_epoch": "2025-12-07T14:36:12.590784",
        "meta_mean_motion": 14.26378053,
        "meta_eccentricity": 0.00576294,
        "meta_inclination": 99.1571,
        "meta_ra_of_asc_node": 7.8072,
        "meta_arg_of_pericenter": 32.3449,
        "meta_mean_anomaly": 328.1242,
        "meta_ephemeris_type": 0,
        "meta_classification_type": "U",
        "meta_norad_cat_id": 31169,
        "meta_element_set_no": 999,
        "meta_rev_at_epoch": 57031,
        "meta_bstar": 0.0034039126,
        "meta_mean_motion_dot": 8.288e-05,
        "meta_mean_motion_ddot": 0,
        "tle_line1": "1 31169U 99025BHX 25341.60847906  .00008288  00000+0  34039-2 0  9996",
        "tle_line2": "2 31169  99.1571   7.8072 0057629  32.3449 328.1242 14.26378053570319"
      },
      "geometry": {
        "type": "Point",
        "coordinates": [
          6.516956988504284,
          13.226492423422977
        ]
      }
    },
    {
      "type": "Feature",
      "properties": {
        "norad_id": 31171,
        "name": "FENGYUN 1C DEB",
        "group": "fengyun-1c-debris",
        "lat": -19.58012694643427,
        "lon": -24.698678124734666,
        "alt_km": 672.2811498403635,
        "timestamp": "2025-12-08T10:52:03.228352+00:00",
        "meta_object_name": "FENGYUN 1C DEB",
        "meta_object_id": "1999-025BHZ",
        "meta_epoch": "2025-12-07T05:06:25.155360",
        "meta_mean_motion": 14.34555534,
        "meta_eccentricity": 0.01553115,
        "meta_inclination": 98.0155,
        "meta_ra_of_asc_node": 331.2772,
        "meta_arg_of_pericenter": 333.2641,
        "meta_mean_anomaly": 86.3497,
        "meta_ephemeris_type": 0,
        "meta_classification_type": "U",
        "meta_norad_cat_id": 31171,
        "meta_element_set_no": 999,
        "meta_rev_at_epoch": 95751,
        "meta_bstar": 0.0080018336,
        "meta_mean_motion_dot": 0.00025921,
        "meta_mean_motion_ddot": 0,
        "tle_line1": "1 31171U 99025BHZ 25341.21279115  .00025921  00000+0  80018-2 0  9998",
        "tle_line2": "2 31171  98.0155 331.2772 0155311 333.2641  86.3497 14.34555534957519"
      },
      "geometry": {
        "type": "Point",
        "coordinates": [
          -24.698678124734666,
          -19.58012694643427
        ]
      }
    },
    {
      "type": "Feature",
      "properties": {
        "norad_id": 31172,
        "name": "FENGYUN 1C DEB",
        "group": "fengyun-1c-debris",
        "lat": -70.71955142772003,
        "lon": 12.119078759313165,
        "alt_km": 688.3866299325082,
        "timestamp": "2025-12-08T10:52:03.228362+00:00",
        "meta_object_name": "FENGYUN 1C DEB",
        "meta_object_id": "1999-025BJA",
        "meta_epoch": "2025-12-07T06:40:53.692608",
        "meta_mean_motion": 14.31504839,
        "meta_eccentricity": 0.01481468,
        "meta_inclination": 98.4248,
        "meta_ra_of_asc_node": 345.9127,
        "meta_arg_of_pericenter": 284.8338,
        "meta_mean_anomaly": 73.6477,
        "meta_ephemeris_type": 0,
        "meta_classification_type": "U",
        "meta_norad_cat_id": 31172,
        "meta_element_set_no": 999,
        "meta_rev_at_epoch": 97548,
        "meta_bstar": 0.0003034592,
        "meta_mean_motion_dot": 8.63e-06,
        "meta_mean_motion_ddot": 0,
        "tle_line1": "1 31172U 99025BJA 25341.27839922  .00000863  00000+0  30346-3 0  9991",
        "tle_line2": "2 31172  98.4248 345.9127 0148146 284.8338  73.6477 14.31504839975487"
      },
      "geometry": {
        "type": "Point",
        "coordinates": [
          12.119078759313165,
          -70.71955142772003
        ]
      }
    },
    {
      "type": "Feature",
      "properties": {
        "norad_id": 31175,
        "name": "FENGYUN 1C DEB",
        "group": "fengyun-1c-debris",
        "lat": 67.81546843301,
        "lon": -176.18056691986752,
        "alt_km": 668.3954696052097,
        "timestamp": "2025-12-08T10:52:03.228372+00:00",
        "meta_object_name": "FENGYUN 1C DEB",
        "meta_object_id": "1999-025BJD",
        "meta_epoch": "2025-12-07T06:23:34.740384",
        "meta_mean_motion": 14.59732697,
        "meta_eccentricity": 0.00731586,
        "meta_inclination": 98.3992,
        "meta_ra_of_asc_node": 341.3748,
        "meta_arg_of_pericenter": 183.3298,
        "meta_mean_anomaly": 176.7424,
        "meta_ephemeris_type": 0,
        "meta_classification_type": "U",
        "meta_norad_cat_id": 31175,
        "meta_element_set_no": 999,
        "meta_rev_at_epoch": 65559,
        "meta_bstar": 0.0064869448,
        "meta_mean_motion_dot": 0.00032217,
        "meta_mean_motion_ddot": 0,
        "tle_line1": "1 31175U 99025BJD 25341.26637431  .00032217  00000+0  64869-2 0  9998",
        "tle_line2": "2 31175  98.3992 341.3748 0073158 183.3298 176.7424 14.59732697655591"
      },
      "geometry": {
        "type": "Point",
        "coordinates": [
          -176.18056691986752,
          67.81546843301
        ]
      }
    },
    {
      "type": "Feature",
      "properties": {
        "norad_id": 31177,
        "name": "FENGYUN 1C DEB",
        "group": "fengyun-1c-debris",
        "lat": 20.133302282725296,
        "lon": 79.55765010639207,
        "alt_km": 1249.93656127565,
        "timestamp": "2025-12-08T10:52:03.228383+00:00",
        "meta_object_name": "FENGYUN 1C DEB",
        "meta_object_id": "1999-025BJF",
        "meta_epoch": "2025-12-01T06:04:03.773280",
        "meta_mean_motion": 13.62101426,
        "meta_eccentricity": 0.0311511,
        "meta_inclination": 98.7576,
        "meta_ra_of_asc_node": 249.8401,
        "meta_arg_of_pericenter": 343.5186,
        "meta_mean_anomaly": 168.581,
        "meta_ephemeris_type": 0,
        "meta_classification_type": "U",
        "meta_norad_cat_id": 31177,
        "meta_element_set_no": 999,
        "meta_rev_at_epoch": 66055,
        "meta_bstar": 0.0077346,
        "meta_mean_motion_dot": 8.228e-05,
        "meta_mean_motion_ddot": 0,
        "tle_line1": "1 31177U 99025BJF 25335.25282145  .00008228  00000+0  77346-2 0  9999",
        "tle_line2": "2 31177  98.7576 249.8401 0311511 343.5186 168.5810 13.62101426660550"
      },
      "geometry": {
        "type": "Point",
        "coordinates": [
          79.55765010639207,
          20.133302282725296
        ]
      }
    }
  ]
}